CCSDS_OMM_VERS = 2.0
CREATION_DATE  = 
ORIGINATOR     = 

OBJECT_NAME    = SL-3 R/B
OBJECT_ID      = 1982-079B
CENTER_NAME    = EARTH
REF_FRAME      = TEME
TIME_SYSTEM    = UTC
MEAN_ELEMENT_THEORY = SGP/SGP4

EPOCH          = 2026-02-24T12:59:24.520128
MEAN_MOTION    = 15.24574200
ECCENTRICITY   = .00245714
INCLINATION    = 81.1462
RA_OF_ASC_NODE = 208.5987
ARG_OF_PERICENTER = 209.3495
MEAN_ANOMALY   = 150.6360

EPHEMERIS_TYPE = 0
CLASSIFICATION_TYPE = U
NORAD_CAT_ID   = 13403
ELEMENT_SET_NO = 999
REV_AT_EPOCH   = 37569
BSTAR          = .25932724E-3
MEAN_MOTION_DOT = .6468E-4
MEAN_MOTION_DDOT = 0

CCSDS_OMM_VERS = 2.0
CREATION_DATE  = 
ORIGINATOR     = 

OBJECT_NAME    = SL-14 R/B
OBJECT_ID      = 1982-092B
CENTER_NAME    = EARTH
REF_FRAME      = TEME
TIME_SYSTEM    = UTC
MEAN_ELEMENT_THEORY = SGP/SGP4

EPOCH          = 2026-02-24T09:15:13.855392
MEAN_MOTION    = 14.86651012
ECCENTRICITY   = .00199612
INCLINATION    = 82.5712
RA_OF_ASC_NODE = 153.8404
ARG_OF_PERICENTER = 349.7380
MEAN_ANOMALY   = 79.1784

EPHEMERIS_TYPE = 0
CLASSIFICATION_TYPE = U
NORAD_CAT_ID   = 13553
ELEMENT_SET_NO = 999
REV_AT_EPOCH   = 32695
BSTAR          = .53991991E-4
MEAN_MOTION_DOT = .505E-5
MEAN_MOTION_DDOT = 0

CCSDS_OMM_VERS = 2.0
CREATION_DATE  = 
ORIGINATOR     = 

OBJECT_NAME    = SL-3 R/B
OBJECT_ID      = 1983-010B
CENTER_NAME    = EARTH
REF_FRAME      = TEME
TIME_SYSTEM    = UTC
MEAN_ELEMENT_THEORY = SGP/SGP4

EPOCH          = 2026-02-24T08:43:57.046080
MEAN_MOTION    = 15.45819498
ECCENTRICITY   = .00186699
INCLINATION    = 81.1047
RA_OF_ASC_NODE = 18.5770
ARG_OF_PERICENTER = 92.9180
MEAN_ANOMALY   = 267.4202

EPHEMERIS_TYPE = 0
CLASSIFICATION_TYPE = U
NORAD_CAT_ID   = 13819
ELEMENT_SET_NO = 999
REV_AT_EPOCH   = 35588
BSTAR          = .33806943E-3
MEAN_MOTION_DOT = .16539E-3
MEAN_MOTION_DDOT = 0

CCSDS_OMM_VERS = 2.0
CREATION_DATE  = 
ORIGINATOR     = 

OBJECT_NAME    = SL-3 R/B
OBJECT_ID      = 1983-075B
CENTER_NAME    = EARTH
REF_FRAME      = TEME
TIME_SYSTEM    = UTC
MEAN_ELEMENT_THEORY = SGP/SGP4

EPOCH          = 2026-02-24T13:07:08.336928
MEAN_MOTION    = 15.38054682
ECCENTRICITY   = .00196751
INCLINATION    = 97.6143
RA_OF_ASC_NODE = 59.6311
ARG_OF_PERICENTER = 277.7149
MEAN_ANOMALY   = 82.1861

EPHEMERIS_TYPE = 0
CLASSIFICATION_TYPE = U
NORAD_CAT_ID   = 14208
ELEMENT_SET_NO = 999
REV_AT_EPOCH   = 32813
BSTAR          = .30626131E-3
MEAN_MOTION_DOT = .11458E-3
MEAN_MOTION_DDOT = 0

CCSDS_OMM_VERS = 2.0
CREATION_DATE  = 
ORIGINATOR     = 

OBJECT_NAME    = COSMOS 1536
OBJECT_ID      = 1984-013A
CENTER_NAME    = EARTH
REF_FRAME      = TEME
TIME_SYSTEM    = UTC
MEAN_ELEMENT_THEORY = SGP/SGP4

EPOCH          = 2026-02-24T14:03:33.103584
MEAN_MOTION    = 15.23631805
ECCENTRICITY   = .00133138
INCLINATION    = 82.5450
RA_OF_ASC_NODE = 120.8743
ARG_OF_PERICENTER = 334.1012
MEAN_ANOMALY   = 25.9557

EPHEMERIS_TYPE = 0
CLASSIFICATION_TYPE = U
NORAD_CAT_ID   = 14699
ELEMENT_SET_NO = 999
REV_AT_EPOCH   = 27062
BSTAR          = .28445651E-3
MEAN_MOTION_DOT = .6861E-4
MEAN_MOTION_DDOT = 0

CCSDS_OMM_VERS = 2.0
CREATION_DATE  = 
ORIGINATOR     = 

OBJECT_NAME    = SL-14 R/B
OBJECT_ID      = 1984-027B
CENTER_NAME    = EARTH
REF_FRAME      = TEME
TIME_SYSTEM    = UTC
MEAN_ELEMENT_THEORY = SGP/SGP4

EPOCH          = 2026-02-24T13:29:41.857728
MEAN_MOTION    = 14.85961134
ECCENTRICITY   = .00184981
INCLINATION    = 82.5381
RA_OF_ASC_NODE = 257.3283
ARG_OF_PERICENTER = 21.6918
MEAN_ANOMALY   = 338.5078

EPHEMERIS_TYPE = 0
CLASSIFICATION_TYPE = U
NORAD_CAT_ID   = 14820
ELEMENT_SET_NO = 999
REV_AT_EPOCH   = 24568
BSTAR          = .47132046E-4
MEAN_MOTION_DOT = .437E-5
MEAN_MOTION_DDOT = 0

CCSDS_OMM_VERS = 2.0
CREATION_DATE  = 
ORIGINATOR     = 

OBJECT_NAME    = SL-8 R/B
OBJECT_ID      = 1985-006B
CENTER_NAME    = EARTH
REF_FRAME      = TEME
TIME_SYSTEM    = UTC
MEAN_ELEMENT_THEORY = SGP/SGP4

EPOCH          = 2026-02-24T15:19:44.196672
MEAN_MOTION    = 14.37775362
ECCENTRICITY   = .00189792
INCLINATION    = 74.0443
RA_OF_ASC_NODE = 285.1652
ARG_OF_PERICENTER = 205.6832
MEAN_ANOMALY   = 174.8653

EPHEMERIS_TYPE = 0
CLASSIFICATION_TYPE = U
NORAD_CAT_ID   = 15483
ELEMENT_SET_NO = 999
REV_AT_EPOCH   = 15215
BSTAR          = .52327016E-4
MEAN_MOTION_DOT = .132E-5
MEAN_MOTION_DDOT = 0

CCSDS_OMM_VERS = 2.0
CREATION_DATE  = 
ORIGINATOR     = 

OBJECT_NAME    = SL-12 R/B(2)
OBJECT_ID      = 1985-042D
CENTER_NAME    = EARTH
REF_FRAME      = TEME
TIME_SYSTEM    = UTC
MEAN_ELEMENT_THEORY = SGP/SGP4

EPOCH          = 2026-02-24T13:08:46.120992
MEAN_MOTION    = 14.21978595
ECCENTRICITY   = .00339347
INCLINATION    = 71.1073
RA_OF_ASC_NODE = 115.4957
ARG_OF_PERICENTER = 149.5517
MEAN_ANOMALY   = 313.7977

EPHEMERIS_TYPE = 0
CLASSIFICATION_TYPE = U
NORAD_CAT_ID   = 15772
ELEMENT_SET_NO = 999
REV_AT_EPOCH   = 11252
BSTAR          = .29198367E-4
MEAN_MOTION_DOT = .17E-6
MEAN_MOTION_DDOT = 0

CCSDS_OMM_VERS = 2.0
CREATION_DATE  = 
ORIGINATOR     = 

OBJECT_NAME    = SL-14 R/B
OBJECT_ID      = 1985-069B
CENTER_NAME    = EARTH
REF_FRAME      = TEME
TIME_SYSTEM    = UTC
MEAN_ELEMENT_THEORY = SGP/SGP4

EPOCH          = 2026-02-24T09:59:37.637376
MEAN_MOTION    = 14.86415437
ECCENTRICITY   = .00174404
INCLINATION    = 82.5258
RA_OF_ASC_NODE = 37.4146
ARG_OF_PERICENTER = 233.6285
MEAN_ANOMALY   = 126.3324

EPHEMERIS_TYPE = 0
CLASSIFICATION_TYPE = U
NORAD_CAT_ID   = 15945
ELEMENT_SET_NO = 999
REV_AT_EPOCH   = 17086
BSTAR          = .60956146E-4
MEAN_MOTION_DOT = .563E-5
MEAN_MOTION_DDOT = 0

CCSDS_OMM_VERS = 2.0
CREATION_DATE  = 
ORIGINATOR     = 

OBJECT_NAME    = SL-16 R/B
OBJECT_ID      = 1985-097B
CENTER_NAME    = EARTH
REF_FRAME      = TEME
TIME_SYSTEM    = UTC
MEAN_ELEMENT_THEORY = SGP/SGP4

EPOCH          = 2026-02-24T13:26:50.487648
MEAN_MOTION    = 14.16596795
ECCENTRICITY   = .00097567
INCLINATION    = 71.0036
RA_OF_ASC_NODE = 168.1929
ARG_OF_PERICENTER = 274.6907
MEAN_ANOMALY   = 96.0175

EPHEMERIS_TYPE = 0
CLASSIFICATION_TYPE = U
NORAD_CAT_ID   = 16182
ELEMENT_SET_NO = 999
REV_AT_EPOCH   = 8537
BSTAR          = .16185302E-3
MEAN_MOTION_DOT = .275E-5
MEAN_MOTION_DDOT = 0

CCSDS_OMM_VERS = 2.0
CREATION_DATE  = 
ORIGINATOR     = 

OBJECT_NAME    = SL-14 R/B
OBJECT_ID      = 1986-006B
CENTER_NAME    = EARTH
REF_FRAME      = TEME
TIME_SYSTEM    = UTC
MEAN_ELEMENT_THEORY = SGP/SGP4

EPOCH          = 2026-02-24T14:22:20.006688
MEAN_MOTION    = 14.86795730
ECCENTRICITY   = .007554
INCLINATION    = 82.5240
RA_OF_ASC_NODE = 272.0608
ARG_OF_PERICENTER = 316.9993
MEAN_ANOMALY   = 42.5334

EPHEMERIS_TYPE = 0
CLASSIFICATION_TYPE = U
NORAD_CAT_ID   = 16496
ELEMENT_SET_NO = 999
REV_AT_EPOCH   = 14726
BSTAR          = .5786572E-4
MEAN_MOTION_DOT = .568E-5
MEAN_MOTION_DDOT = 0

CCSDS_OMM_VERS = 2.0
CREATION_DATE  = 
ORIGINATOR     = 

OBJECT_NAME    = COSMOS 1743
OBJECT_ID      = 1986-034A
CENTER_NAME    = EARTH
REF_FRAME      = TEME
TIME_SYSTEM    = UTC
MEAN_ELEMENT_THEORY = SGP/SGP4

EPOCH          = 2026-02-24T12:57:25.379712
MEAN_MOTION    = 15.57517366
ECCENTRICITY   = .00033262
INCLINATION    = 82.5312
RA_OF_ASC_NODE = 87.6222
ARG_OF_PERICENTER = 3.8514
MEAN_ANOMALY   = 356.2766

EPHEMERIS_TYPE = 0
CLASSIFICATION_TYPE = U
NORAD_CAT_ID   = 16719
ELEMENT_SET_NO = 999
REV_AT_EPOCH   = 17820
BSTAR          = .45410912E-3
MEAN_MOTION_DOT = .33522E-3
MEAN_MOTION_DDOT = 0

